QIANFAN-161             
1 69120U 26108S   26195.68430296 -.02012988  00000+0 -22811+1 0  9991
2 69120  89.0107  19.2399 0018104  14.3387 345.8287 13.74348470  8183
QIANFAN-162             
1 69121U 26108T   26195.67570129 -.02019044  00000+0 -25465+1 0  9999
2 69121  89.0092  19.2534 0022415  40.1722 320.1091 13.67799001  8167
QIANFAN-163             
1 69325U 26121A   26189.97247712  .00000008  00000+0 -66399-5 0  9998
2 69325  89.0049 298.3591 0020480 118.5630 241.7588 13.53894414  5116
QIANFAN-164             
1 69326U 26121B   26194.67164071  .00000062  00000+0  78132-4 0  9994
2 69326  89.0183 297.8725 0022845 112.6356 247.7213 13.49695561  5743
QIANFAN-165             
1 69382U 26124A   26195.63843478 -.01791949  00000+0 -15986+1 0  9999
2 69382  88.9996 358.9655 0002222 358.8920   1.2247 13.88819111  5689
QIANFAN-166             
1 69383U 26124B   26195.89327272  .00000034  00000+0  15448-4 0  9999
2 69383  89.0066 358.9153 0005290  55.3886 304.7788 13.93938077  5726
QIANFAN-167             
1 69384U 26124C   26195.56125954 -.02034197  00000+0 -18238+1 0  9994
2 69384  88.9993 358.9735 0008750 124.6441 235.5558 13.88360657  5678
QIANFAN-168             
1 69385U 26124D   26195.74460643 -.02029571  00000+0 -17650+1 0  9999
2 69385  88.9992 358.9439 0003045 125.2439 234.9020 13.90141946  5707
QIANFAN-169             
1 69386U 26124E   26195.72909494 -.02009184  00000+0 -17125+1 0  9995
2 69386  88.9989 358.9421 0005786 129.5926 230.5760 13.91260601  5701
QIANFAN-170             
1 69387U 26124F   26195.56202593 -.02047124  00000+0 -16775+1 0  9990
2 69387  88.9990 358.9541 0008206  42.3490 317.8318 13.93602559  5684
QIANFAN-171             
1 69388U 26124G   26195.61830886 -.02005468  00000+0 -16558+1 0  9993
2 69388  88.9992 358.9439 0006099 111.7872 248.3953 13.93090182  5693
QIANFAN-172             
1 69389U 26124H   26195.62016378 -.01955446  00000+0 -15907+1 0  9993
2 69389  88.9996 358.9444 0007650  99.3832 260.8209 13.93836192  5697
QIANFAN-173             
1 69390U 26124J   26195.60449067 -.02060885  00000+0 -16575+1 0  9995
2 69390  88.9994 358.9426 0011504  78.5178 281.7289 13.94687460  5695
QIANFAN-174             
1 69391U 26124K   26195.51039892 -.02025893  00000+0 -15444+1 0  9991
2 69391  88.9996 358.9472 0010717  62.6674 297.5593 13.97682932  5672
QIANFAN-175             
1 69392U 26124L   26195.72866227 -.02039060  00000+0 -16258+1 0  9990
2 69392  89.0009 358.9237 0012516  78.7802 281.4781 13.95135259  5718
QIANFAN-176             
1 69393U 26124M   26195.72581538 -.02053750  00000+0 -16317+1 0  9998
2 69393  88.9991 358.9211 0012633  79.9741 280.2861 13.95367209  5701
