{"fetched_at":"2026-07-15T06:35:39.467Z","source":"https://celestrak.org/NORAD/elements/gp.php?GROUP=qianfan&FORMAT=JSON","constellation":"qianfan","records":[{"OBJECT_NAME":"QIANFAN-161","OBJECT_ID":"2026-108S","EPOCH":"2026-07-14T16:25:23.775744","CLASSIFICATION_TYPE":"U","MEAN_MOTION":13.7434847,"ECCENTRICITY":0.00181041,"INCLINATION":89.0107,"RA_OF_ASC_NODE":19.2399,"ARG_OF_PERICENTER":14.3387,"MEAN_ANOMALY":345.8287,"EPHEMERIS_TYPE":0,"NORAD_CAT_ID":69120,"ELEMENT_SET_NO":999,"REV_AT_EPOCH":818,"BSTAR":-2.2810884,"MEAN_MOTION_DOT":-0.02012988,"MEAN_MOTION_DDOT":0},{"OBJECT_NAME":"QIANFAN-162","OBJECT_ID":"2026-108T","EPOCH":"2026-07-14T16:13:00.591456","CLASSIFICATION_TYPE":"U","MEAN_MOTION":13.67799001,"ECCENTRICITY":0.00224158,"INCLINATION":89.0092,"RA_OF_ASC_NODE":19.2534,"ARG_OF_PERICENTER":40.1722,"MEAN_ANOMALY":320.1091,"EPHEMERIS_TYPE":0,"NORAD_CAT_ID":69121,"ELEMENT_SET_NO":999,"REV_AT_EPOCH":816,"BSTAR":-2.5465326,"MEAN_MOTION_DOT":-0.02019044,"MEAN_MOTION_DDOT":0},{"OBJECT_NAME":"QIANFAN-163","OBJECT_ID":"2026-121A","EPOCH":"2026-07-08T23:20:22.023168","CLASSIFICATION_TYPE":"U","MEAN_MOTION":13.53894414,"ECCENTRICITY":0.00204807,"INCLINATION":89.0049,"RA_OF_ASC_NODE":298.3591,"ARG_OF_PERICENTER":118.563,"MEAN_ANOMALY":241.7588,"EPHEMERIS_TYPE":0,"NORAD_CAT_ID":69325,"ELEMENT_SET_NO":999,"REV_AT_EPOCH":511,"BSTAR":-0.000006639878,"MEAN_MOTION_DOT":8e-8,"MEAN_MOTION_DDOT":0},{"OBJECT_NAME":"QIANFAN-164","OBJECT_ID":"2026-121B","EPOCH":"2026-07-13T16:07:09.757344","CLASSIFICATION_TYPE":"U","MEAN_MOTION":13.49695561,"ECCENTRICITY":0.00228451,"INCLINATION":89.0183,"RA_OF_ASC_NODE":297.8725,"ARG_OF_PERICENTER":112.6356,"MEAN_ANOMALY":247.7213,"EPHEMERIS_TYPE":0,"NORAD_CAT_ID":69326,"ELEMENT_SET_NO":999,"REV_AT_EPOCH":574,"BSTAR":0.000078131509,"MEAN_MOTION_DOT":6.2e-7,"MEAN_MOTION_DDOT":0},{"OBJECT_NAME":"QIANFAN-165","OBJECT_ID":"2026-124A","EPOCH":"2026-07-14T15:19:20.764992","CLASSIFICATION_TYPE":"U","MEAN_MOTION":13.88819111,"ECCENTRICITY":0.00022228,"INCLINATION":88.9996,"RA_OF_ASC_NODE":358.9655,"ARG_OF_PERICENTER":358.892,"MEAN_ANOMALY":1.2247,"EPHEMERIS_TYPE":0,"NORAD_CAT_ID":69382,"ELEMENT_SET_NO":999,"REV_AT_EPOCH":568,"BSTAR":-1.5986187,"MEAN_MOTION_DOT":-0.01791949,"MEAN_MOTION_DDOT":0},{"OBJECT_NAME":"QIANFAN-166","OBJECT_ID":"2026-124B","EPOCH":"2026-07-14T21:26:18.763008","CLASSIFICATION_TYPE":"U","MEAN_MOTION":13.93938077,"ECCENTRICITY":0.000529,"INCLINATION":89.0066,"RA_OF_ASC_NODE":358.9153,"ARG_OF_PERICENTER":55.3886,"MEAN_ANOMALY":304.7788,"EPHEMERIS_TYPE":0,"NORAD_CAT_ID":69383,"ELEMENT_SET_NO":999,"REV_AT_EPOCH":572,"BSTAR":0.000015448016,"MEAN_MOTION_DOT":3.4e-7,"MEAN_MOTION_DDOT":0},{"OBJECT_NAME":"QIANFAN-167","OBJECT_ID":"2026-124C","EPOCH":"2026-07-14T13:28:12.824256","CLASSIFICATION_TYPE":"U","MEAN_MOTION":13.88360657,"ECCENTRICITY":0.00087506,"INCLINATION":88.9993,"RA_OF_ASC_NODE":358.9735,"ARG_OF_PERICENTER":124.6441,"MEAN_ANOMALY":235.5558,"EPHEMERIS_TYPE":0,"NORAD_CAT_ID":69384,"ELEMENT_SET_NO":999,"REV_AT_EPOCH":567,"BSTAR":-1.8237975,"MEAN_MOTION_DOT":-0.02034197,"MEAN_MOTION_DDOT":0},{"OBJECT_NAME":"QIANFAN-168","OBJECT_ID":"2026-124D","EPOCH":"2026-07-14T17:52:13.995552","CLASSIFICATION_TYPE":"U","MEAN_MOTION":13.90141946,"ECCENTRICITY":0.00030456,"INCLINATION":88.9992,"RA_OF_ASC_NODE":358.9439,"ARG_OF_PERICENTER":125.2439,"MEAN_ANOMALY":234.902,"EPHEMERIS_TYPE":0,"NORAD_CAT_ID":69385,"ELEMENT_SET_NO":999,"REV_AT_EPOCH":570,"BSTAR":-1.7650075,"MEAN_MOTION_DOT":-0.02029571,"MEAN_MOTION_DDOT":0},{"OBJECT_NAME":"QIANFAN-169","OBJECT_ID":"2026-124E","EPOCH":"2026-07-14T17:29:53.802816","CLASSIFICATION_TYPE":"U","MEAN_MOTION":13.91260601,"ECCENTRICITY":0.00057867,"INCLINATION":88.9989,"RA_OF_ASC_NODE":358.9421,"ARG_OF_PERICENTER":129.5926,"MEAN_ANOMALY":230.576,"EPHEMERIS_TYPE":0,"NORAD_CAT_ID":69386,"ELEMENT_SET_NO":999,"REV_AT_EPOCH":570,"BSTAR":-1.7124995,"MEAN_MOTION_DOT":-0.02009184,"MEAN_MOTION_DDOT":0},{"OBJECT_NAME":"QIANFAN-170","OBJECT_ID":"2026-124F","EPOCH":"2026-07-14T13:29:19.040352","CLASSIFICATION_TYPE":"U","MEAN_MOTION":13.93602559,"ECCENTRICITY":0.00082066,"INCLINATION":88.999,"RA_OF_ASC_NODE":358.9541,"ARG_OF_PERICENTER":42.349,"MEAN_ANOMALY":317.8318,"EPHEMERIS_TYPE":0,"NORAD_CAT_ID":69387,"ELEMENT_SET_NO":999,"REV_AT_EPOCH":568,"BSTAR":-1.677481,"MEAN_MOTION_DOT":-0.02047124,"MEAN_MOTION_DDOT":0},{"OBJECT_NAME":"QIANFAN-171","OBJECT_ID":"2026-124G","EPOCH":"2026-07-14T14:50:21.885504","CLASSIFICATION_TYPE":"U","MEAN_MOTION":13.93090182,"ECCENTRICITY":0.00060996,"INCLINATION":88.9992,"RA_OF_ASC_NODE":358.9439,"ARG_OF_PERICENTER":111.7872,"MEAN_ANOMALY":248.3953,"EPHEMERIS_TYPE":0,"NORAD_CAT_ID":69388,"ELEMENT_SET_NO":999,"REV_AT_EPOCH":569,"BSTAR":-1.6557928,"MEAN_MOTION_DOT":-0.02005468,"MEAN_MOTION_DDOT":0},{"OBJECT_NAME":"QIANFAN-172","OBJECT_ID":"2026-124H","EPOCH":"2026-07-14T14:53:02.150592","CLASSIFICATION_TYPE":"U","MEAN_MOTION":13.93836192,"ECCENTRICITY":0.00076507,"INCLINATION":88.9996,"RA_OF_ASC_NODE":358.9444,"ARG_OF_PERICENTER":99.3832,"MEAN_ANOMALY":260.8209,"EPHEMERIS_TYPE":0,"NORAD_CAT_ID":69389,"ELEMENT_SET_NO":999,"REV_AT_EPOCH":569,"BSTAR":-1.5907358,"MEAN_MOTION_DOT":-0.01955446,"MEAN_MOTION_DDOT":0},{"OBJECT_NAME":"QIANFAN-173","OBJECT_ID":"2026-124J","EPOCH":"2026-07-14T14:30:27.993888","CLASSIFICATION_TYPE":"U","MEAN_MOTION":13.9468746,"ECCENTRICITY":0.00115044,"INCLINATION":88.9994,"RA_OF_ASC_NODE":358.9426,"ARG_OF_PERICENTER":78.5178,"MEAN_ANOMALY":281.7289,"EPHEMERIS_TYPE":0,"NORAD_CAT_ID":69390,"ELEMENT_SET_NO":999,"REV_AT_EPOCH":569,"BSTAR":-1.6575371,"MEAN_MOTION_DOT":-0.02060885,"MEAN_MOTION_DDOT":0},{"OBJECT_NAME":"QIANFAN-174","OBJECT_ID":"2026-124K","EPOCH":"2026-07-14T12:14:58.466688","CLASSIFICATION_TYPE":"U","MEAN_MOTION":13.97682932,"ECCENTRICITY":0.00107176,"INCLINATION":88.9996,"RA_OF_ASC_NODE":358.9472,"ARG_OF_PERICENTER":62.6674,"MEAN_ANOMALY":297.5593,"EPHEMERIS_TYPE":0,"NORAD_CAT_ID":69391,"ELEMENT_SET_NO":999,"REV_AT_EPOCH":567,"BSTAR":-1.5443525,"MEAN_MOTION_DOT":-0.02025893,"MEAN_MOTION_DDOT":0},{"OBJECT_NAME":"QIANFAN-175","OBJECT_ID":"2026-124L","EPOCH":"2026-07-14T17:29:16.420128","CLASSIFICATION_TYPE":"U","MEAN_MOTION":13.95135259,"ECCENTRICITY":0.00125163,"INCLINATION":89.0009,"RA_OF_ASC_NODE":358.9237,"ARG_OF_PERICENTER":78.7802,"MEAN_ANOMALY":281.4781,"EPHEMERIS_TYPE":0,"NORAD_CAT_ID":69392,"ELEMENT_SET_NO":999,"REV_AT_EPOCH":571,"BSTAR":-1.625796,"MEAN_MOTION_DOT":-0.0203906,"MEAN_MOTION_DDOT":0},{"OBJECT_NAME":"QIANFAN-176","OBJECT_ID":"2026-124M","EPOCH":"2026-07-14T17:25:10.448832","CLASSIFICATION_TYPE":"U","MEAN_MOTION":13.95367209,"ECCENTRICITY":0.00126331,"INCLINATION":88.9991,"RA_OF_ASC_NODE":358.9211,"ARG_OF_PERICENTER":79.9741,"MEAN_ANOMALY":280.2861,"EPHEMERIS_TYPE":0,"NORAD_CAT_ID":69393,"ELEMENT_SET_NO":999,"REV_AT_EPOCH":570,"BSTAR":-1.6317262,"MEAN_MOTION_DOT":-0.0205375,"MEAN_MOTION_DDOT":0}]}
